      2.10          N: GNSS NAV DATA                        RINEX VERSION / TYPE
fic2rin                                 10/07/2020 00:17:40 PGM / RUN BY / DATE
                                                            END OF HEADER
11 20 10  6  4  0  0.0-1.448495313525e-04 1.057287590811e-11 0.000000000000e+00
    4.000000000000e+01-8.371875000000e+01 5.183430196388e-09-2.563023441357e+00
   -4.181638360023e-06 1.581750845071e-02 8.884817361832e-06 5.153728708267e+03
    1.872000000000e+05 1.378357410431e-07 2.123315931717e-01 2.086162567139e-07
    9.138328208279e-01 1.821562500000e+02 2.053180204065e+00-8.152482440760e-09
   -1.689356082747e-10 1.000000000000e+00 2.126000000000e+03 0.000000000000e+00
    2.400000000000e+00 0.000000000000e+00-1.210719347000e-08 4.000000000000e+01
    1.800000000000e+05 4.000000000000e+00
15 20 10  6  4  0  0.0-1.988927833736e-04 2.614797267597e-12 0.000000000000e+00
    8.100000000000e+01-3.090625000000e+01 5.464156175466e-09-7.432779255376e-01
   -1.337379217148e-06 1.286739308853e-02 6.824731826782e-06 5.153753072739e+03
    1.872000000000e+05 2.980232238770e-08 2.672859891046e+00 2.402812242508e-07
    9.287142116233e-01 2.295937500000e+02 9.283363076992e-01-8.634288224190e-09
   -2.867976605595e-10 1.000000000000e+00 2.126000000000e+03 0.000000000000e+00
    2.400000000000e+00 0.000000000000e+00-1.071020960808e-08 8.100000000000e+01
    1.800000000000e+05 4.000000000000e+00
12 20 10  6  4  0  0.0 5.788775160909e-05-5.115907697473e-12 0.000000000000e+00
    5.300000000000e+01 4.887500000000e+01 4.435899058715e-09 2.884809102301e+00
    2.456828951836e-06 7.912196102552e-03 2.881512045860e-06 5.153620611191e+03
    1.872000000000e+05 5.960464477539e-08-1.336039739921e+00-1.341104507446e-07
    9.762809432314e-01 3.285625000000e+02 1.168936604227e+00-8.080336578452e-09
    6.928860043404e-11 1.000000000000e+00 2.126000000000e+03 0.000000000000e+00
    2.400000000000e+00 0.000000000000e+00-1.210719347000e-08 5.300000000000e+01
    1.800000000000e+05 4.000000000000e+00
13 20 10  6  4  0  0.0 5.197571590543e-05 3.751665644813e-12 0.000000000000e+00
    4.800000000000e+01-2.284375000000e+01 4.412326648258e-09-5.055466425040e-01
   -1.130625605583e-06 4.609310301021e-03 8.545815944672e-06 5.153689889908e+03
    1.872000000000e+05-2.607703208923e-08 2.910632830672e+00 5.587935447693e-08
    9.683185449141e-01 2.206250000000e+02 1.047272602308e+00-7.985689778890e-09
   -3.296565886630e-10 1.000000000000e+00 2.126000000000e+03 0.000000000000e+00
    2.400000000000e+00 0.000000000000e+00-1.117587089539e-08 4.800000000000e+01
    1.800000000000e+05 4.000000000000e+00
 8 20 10  6  4  0  0.0-5.045905709267e-05-1.364242052659e-12 0.000000000000e+00
    1.740000000000e+02-7.762500000000e+01 4.450899683552e-09 2.872285998355e-01
   -4.198402166367e-06 5.536998040043e-03 4.865229129791e-06 5.153732557297e+03
    1.872000000000e+05 8.568167686462e-08-3.756228792978e-01 3.539025783539e-08
    9.691946850889e-01 2.883125000000e+02-6.785673242528e-02-8.260701234221e-09
   -3.918020344131e-10 1.000000000000e+00 2.126000000000e+03 0.000000000000e+00
    3.400000000000e+00 0.000000000000e+00 5.122274160385e-09 1.740000000000e+02
    1.800000000000e+05 4.000000000000e+00
 4 20 10  6  4  0  0.0-1.423107460141e-04-3.979039320257e-12 0.000000000000e+00
    1.560000000000e+02-2.634375000000e+01 4.596620039104e-09-4.870421156476e-01
   -1.339241862297e-06 8.433201583102e-04 7.964670658112e-06 5.153622385025e+03
    1.872000000000e+05 2.048909664154e-08 2.814688126716e+00 5.587935447693e-09
    9.604693545124e-01 2.240937500000e+02-2.923252270699e+00-8.047835224640e-09
   -3.025126008641e-10 1.000000000000e+00 2.126000000000e+03 0.000000000000e+00
    2.400000000000e+00 0.000000000000e+00-4.190951585770e-09 9.240000000000e+02
    1.800000000000e+05 4.000000000000e+00
 9 20 10  6  4  0  0.0-2.961568534374e-04-5.343281372916e-12 0.000000000000e+00
    1.700000000000e+01-2.803125000000e+01 4.792699635177e-09 5.776911219883e-01
   -1.551583409309e-06 1.840088982135e-03 7.530674338341e-06 5.153640316010e+03
    1.872000000000e+05 5.587935447693e-09 2.765749157468e+00-9.313225746155e-09
    9.532059618601e-01 2.279375000000e+02 1.757290040790e+00-8.186769583243e-09
   -3.014411276615e-10 1.000000000000e+00 2.126000000000e+03 0.000000000000e+00
    2.400000000000e+00 0.000000000000e+00 1.396983861923e-09 1.700000000000e+01
    1.800000000000e+05 4.000000000000e+00
31 20 10  6  4  0  0.0-7.312651723623e-05-2.387423592154e-12 0.000000000000e+00
    7.900000000000e+01 8.071875000000e+01 4.419112645208e-09-3.048262261776e+00
    4.183501005173e-06 9.730269783176e-03 1.091882586479e-05 5.153676721573e+03
    1.872000000000e+05-1.434236764908e-07-2.428296493850e+00-7.078051567078e-08
    9.571897584298e-01 1.684062500000e+02 1.699119427944e-01-7.764966299157e-09
    4.464471677451e-11 1.000000000000e+00 2.126000000000e+03 0.000000000000e+00
    2.400000000000e+00 0.000000000000e+00-1.303851604462e-08 7.900000000000e+01
    1.800000000000e+05 4.000000000000e+00
27 20 10  6  4  0  0.0-4.119290970266e-04-8.753886504564e-12 0.000000000000e+00
    4.100000000000e+01-7.875000000000e+01 4.337680681811e-09 1.548383055455e-01
   -4.064291715622e-06 8.395628421567e-03 5.159527063370e-06 5.153673595428e+03
    1.872000000000e+05 4.097819328308e-08-3.602811096458e-01 9.872019290924e-08
    9.776846306835e-01 2.857812500000e+02 5.732314323158e-01-8.255343868208e-09
   -3.943021385525e-10 1.000000000000e+00 2.126000000000e+03 0.000000000000e+00
    2.400000000000e+00 0.000000000000e+00 1.862645149231e-09 4.100000000000e+01
    1.800000000000e+05 4.000000000000e+00
30 20 10  6  4  0  0.0-3.147497773170e-04-6.934897101019e-12 0.000000000000e+00
    6.700000000000e+01 6.478125000000e+01 4.919490630817e-09-2.729572215948e+00
    3.334134817123e-06 4.773444728926e-03 1.015700399876e-05 5.153589103699e+03
    1.872000000000e+05-3.725290298462e-08-2.423719437186e+00-4.656612873077e-08
    9.380718651328e-01 1.760937500000e+02-2.809679379018e+00-8.097122991959e-09
    8.036049019412e-11 1.000000000000e+00 2.126000000000e+03 0.000000000000e+00
    2.400000000000e+00 0.000000000000e+00 3.725290298462e-09 6.700000000000e+01
    1.800000000000e+05 4.000000000000e+00
19 20 10  6  4  0  0.0-9.555881842971e-05 5.115907697473e-12 0.000000000000e+00
    5.300000000000e+01-7.850000000000e+01 4.074812589443e-09 2.624996228029e+00
   -4.002824425697e-06 9.173794416711e-03 6.014481186867e-06 5.153706785202e+03
    1.872000000000e+05 1.732259988785e-07-2.556614302162e-01-9.126961231232e-08
    9.820385572306e-01 2.721250000000e+02 1.730040533441e+00-7.825325956236e-09
   -3.918020344131e-10 1.000000000000e+00 2.126000000000e+03 0.000000000000e+00
    2.400000000000e+00 0.000000000000e+00-1.536682248116e-08 5.300000000000e+01
    1.800000000000e+05 4.000000000000e+00
25 20 10  6  4  0  0.0 9.792856872082e-07 5.798028723802e-12 0.000000000000e+00
    4.200000000000e+01 6.590625000000e+01 4.652336645638e-09 2.623836138381e+00
    3.250315785408e-06 9.158744593151e-03 3.198161721230e-06 5.153727777481e+03
    1.872000000000e+05 2.980232238770e-08-1.406657844328e+00-1.527369022369e-07
    9.636043294396e-01 3.185312500000e+02 9.327634679253e-01-8.173554747077e-09
    1.564350875779e-10 1.000000000000e+00 2.126000000000e+03 0.000000000000e+00
    2.400000000000e+00 0.000000000000e+00 5.587935447693e-09 4.200000000000e+01
    1.800000000000e+05 4.000000000000e+00
21 20 10  6  4  0  0.0 5.472823977470e-05 4.092726157978e-12 0.000000000000e+00
    7.200000000000e+01-5.928125000000e+01 4.459471469172e-09 9.102855151255e-01
   -3.518536686897e-06 2.380091696978e-02 1.047179102898e-05 5.155025335312e+03
    1.872000000000e+05-1.434236764908e-07 6.177703726157e-01-4.712492227554e-07
    9.547620312481e-01 1.830625000000e+02-1.281018620002e+00-8.266415757968e-09
    7.107438910502e-11 1.000000000000e+00 2.126000000000e+03 0.000000000000e+00
    2.400000000000e+00 0.000000000000e+00-1.024454832077e-08 7.200000000000e+01
    1.800000000000e+05 4.000000000000e+00
23 20 10  6  4  0  0.0 8.057896047831e-05 7.048583938740e-12 0.000000000000e+00
    6.000000000000e+01 1.553125000000e+01 4.694838416008e-09-1.882240084409e+00
    9.648501873016e-07 1.054649590515e-03 6.120651960373e-06 5.153613418579e+03
    1.872000000000e+05 1.117587089539e-08 1.709751041719e+00 2.235174179077e-08
    9.613740581627e-01 2.608125000000e+02 1.942975875830e+00-8.137838973658e-09
    3.700154126271e-10 1.000000000000e+00 2.126000000000e+03 0.000000000000e+00
    2.400000000000e+00 0.000000000000e+00-8.381903171539e-09 6.000000000000e+01
    1.800000000000e+05 4.000000000000e+00
20 20 10  6  4  0  0.0 5.264971405268e-04-1.136868377216e-13 0.000000000000e+00
    8.700000000000e+01 2.293750000000e+01 5.211288499655e-09-2.530213146859e+00
    1.359730958939e-06 5.695837782696e-03 6.511807441711e-06 5.153656442642e+03
    1.872000000000e+05-6.519258022308e-08 1.596731712388e+00 5.774199962616e-08
    9.350329717393e-01 2.405937500000e+02 2.719791802520e+00-8.347847721365e-09
    4.346609625166e-10 1.000000000000e+00 2.126000000000e+03 0.000000000000e+00
    2.400000000000e+00 0.000000000000e+00-8.847564458847e-09 8.700000000000e+01
    1.800000000000e+05 4.000000000000e+00
17 20 10  6  4  0  0.0 3.358349204063e-04 5.456968210638e-12 0.000000000000e+00
    5.300000000000e+01-7.053125000000e+01 4.139815297067e-09 2.928758337398e-02
   -3.652647137642e-06 1.350486988667e-02 6.176531314850e-06 5.153766183853e+03
    1.872000000000e+05-1.713633537292e-07-3.010746220636e-01 9.313225746155e-09
    9.837044800629e-01 2.758125000000e+02-1.634017668698e+00-8.200698734876e-09
   -3.282279577262e-10 1.000000000000e+00 2.126000000000e+03 0.000000000000e+00
    2.400000000000e+00 0.000000000000e+00-1.117587089539e-08 5.300000000000e+01
    1.800000000000e+05 4.000000000000e+00
